PELICAN-1               
1 58296U 23174AS  26191.21846570  .00006951  00000+0  54185-4 0  9996
2 58296  97.4009 293.0009 0002521 190.7359 169.3851 15.72060428149785
PELICAN-2               
1 62631U 25009Y   26193.83060980 -.00000011  00000+0  16907-5 0  9999
2 62631  97.2110 284.4178 0002227 114.6227 245.5252 15.40631688 83503
PELICAN-3               
1 65315U 25188A   26194.15320604  .00003166  00000+0  78016-4 0  9998
2 65315  97.1985 269.9176 0002003 115.4083 244.7372 15.41306041 49319
PELICAN-4               
1 65316U 25188B   26194.17134177  .00005009  00000+0  12508-3 0  9990
2 65316  97.1994 270.0881 0001363  72.2617 287.8779 15.40614656 49319
PELICAN-5               
1 66667U 25276B   26193.95429401  .00003504  00000+0  11494-3 0  9991
2 66667  97.4136 268.9208 0002288  13.7391 346.3913 15.32291302 34466
PELICAN-6               
1 66703U 25276AP  26193.75665506  .00025740  00000+0  85152-3 0  9996
2 66703  97.3675 268.7593 0001794  48.9970 311.1426 15.31319362 34446
PELICAN-7               
1 69017U 26100AP  26193.69864648  .00001096  00000+0  48764-4 0  9992
2 69017  97.3720  91.1635 0004293 353.7134   6.4048 15.23578441 10690
PELICAN-9               
1 69019U 26100AR  26193.67359370  .00001272  00000+0  58384-4 0  9998
2 69019  97.3739  90.9959 0001271  11.4344 348.6921 15.22206232 10687
