{"fetched_at":"2026-07-13T18:16:33.417Z","source":"https://celestrak.org/NORAD/elements/gp.php?GROUP=planet&FORMAT=JSON","constellation":"pelican","records":[{"OBJECT_NAME":"PELICAN-1","OBJECT_ID":"2023-174AS","EPOCH":"2026-07-10T05:14:35.436480","CLASSIFICATION_TYPE":"U","MEAN_MOTION":15.72060428,"ECCENTRICITY":0.0002521,"INCLINATION":97.4009,"RA_OF_ASC_NODE":293.0009,"ARG_OF_PERICENTER":190.7359,"MEAN_ANOMALY":169.3851,"EPHEMERIS_TYPE":0,"NORAD_CAT_ID":58296,"ELEMENT_SET_NO":999,"REV_AT_EPOCH":14978,"BSTAR":0.000054184842,"MEAN_MOTION_DOT":0.00006951,"MEAN_MOTION_DDOT":0},{"OBJECT_NAME":"PELICAN-2","OBJECT_ID":"2025-009Y","EPOCH":"2026-07-12T19:56:04.686720","CLASSIFICATION_TYPE":"U","MEAN_MOTION":15.40631688,"ECCENTRICITY":0.00022274,"INCLINATION":97.211,"RA_OF_ASC_NODE":284.4178,"ARG_OF_PERICENTER":114.6227,"MEAN_ANOMALY":245.5252,"EPHEMERIS_TYPE":0,"NORAD_CAT_ID":62631,"ELEMENT_SET_NO":999,"REV_AT_EPOCH":8350,"BSTAR":0.00000169069,"MEAN_MOTION_DOT":-1.1e-7,"MEAN_MOTION_DDOT":0},{"OBJECT_NAME":"PELICAN-3","OBJECT_ID":"2025-188A","EPOCH":"2026-07-13T03:40:37.001856","CLASSIFICATION_TYPE":"U","MEAN_MOTION":15.41306041,"ECCENTRICITY":0.00020038,"INCLINATION":97.1985,"RA_OF_ASC_NODE":269.9176,"ARG_OF_PERICENTER":115.4083,"MEAN_ANOMALY":244.7372,"EPHEMERIS_TYPE":0,"NORAD_CAT_ID":65315,"ELEMENT_SET_NO":999,"REV_AT_EPOCH":4931,"BSTAR":0.000078015829,"MEAN_MOTION_DOT":0.00003166,"MEAN_MOTION_DDOT":0},{"OBJECT_NAME":"PELICAN-4","OBJECT_ID":"2025-188B","EPOCH":"2026-07-13T04:06:43.928928","CLASSIFICATION_TYPE":"U","MEAN_MOTION":15.40614656,"ECCENTRICITY":0.00013639,"INCLINATION":97.1994,"RA_OF_ASC_NODE":270.0881,"ARG_OF_PERICENTER":72.2617,"MEAN_ANOMALY":287.8779,"EPHEMERIS_TYPE":0,"NORAD_CAT_ID":65316,"ELEMENT_SET_NO":999,"REV_AT_EPOCH":4931,"BSTAR":0.00012508265,"MEAN_MOTION_DOT":0.00005009,"MEAN_MOTION_DDOT":0},{"OBJECT_NAME":"PELICAN-5","OBJECT_ID":"2025-276B","EPOCH":"2026-07-12T22:54:11.002464","CLASSIFICATION_TYPE":"U","MEAN_MOTION":15.32291302,"ECCENTRICITY":0.00022885,"INCLINATION":97.4136,"RA_OF_ASC_NODE":268.9208,"ARG_OF_PERICENTER":13.7391,"MEAN_ANOMALY":346.3913,"EPHEMERIS_TYPE":0,"NORAD_CAT_ID":66667,"ELEMENT_SET_NO":999,"REV_AT_EPOCH":3446,"BSTAR":0.00011494368,"MEAN_MOTION_DOT":0.00003504,"MEAN_MOTION_DDOT":0},{"OBJECT_NAME":"PELICAN-6","OBJECT_ID":"2025-276AP","EPOCH":"2026-07-12T18:09:34.997184","CLASSIFICATION_TYPE":"U","MEAN_MOTION":15.31319362,"ECCENTRICITY":0.00017942,"INCLINATION":97.3675,"RA_OF_ASC_NODE":268.7593,"ARG_OF_PERICENTER":48.997,"MEAN_ANOMALY":311.1426,"EPHEMERIS_TYPE":0,"NORAD_CAT_ID":66703,"ELEMENT_SET_NO":999,"REV_AT_EPOCH":3444,"BSTAR":0.00085151998,"MEAN_MOTION_DOT":0.0002574,"MEAN_MOTION_DDOT":0},{"OBJECT_NAME":"PELICAN-7","OBJECT_ID":"2026-100AP","EPOCH":"2026-07-12T16:46:03.055872","CLASSIFICATION_TYPE":"U","MEAN_MOTION":15.23578441,"ECCENTRICITY":0.00042939,"INCLINATION":97.372,"RA_OF_ASC_NODE":91.1635,"ARG_OF_PERICENTER":353.7134,"MEAN_ANOMALY":6.4048,"EPHEMERIS_TYPE":0,"NORAD_CAT_ID":69017,"ELEMENT_SET_NO":999,"REV_AT_EPOCH":1069,"BSTAR":0.00004876363,"MEAN_MOTION_DOT":0.00001096,"MEAN_MOTION_DDOT":0},{"OBJECT_NAME":"PELICAN-9","OBJECT_ID":"2026-100AR","EPOCH":"2026-07-12T16:09:58.495680","CLASSIFICATION_TYPE":"U","MEAN_MOTION":15.22206232,"ECCENTRICITY":0.00012719,"INCLINATION":97.3739,"RA_OF_ASC_NODE":90.9959,"ARG_OF_PERICENTER":11.4344,"MEAN_ANOMALY":348.6921,"EPHEMERIS_TYPE":0,"NORAD_CAT_ID":69019,"ELEMENT_SET_NO":999,"REV_AT_EPOCH":1068,"BSTAR":0.000058383572,"MEAN_MOTION_DOT":0.00001272,"MEAN_MOTION_DDOT":0}]}
